49289,ONEWEB-0363,2021,109.03,148.0,+,87.93,Active,1,LEO,Russia,UK,Commercial,Communications,Soyuz,1 49289U 21090L   25069.38156806  .00000199  00000+0  45797-3 0  9996,2 49289  87.9329   6.7392 0001638  91.0823 269.0498 13.20772109169084,13.20772109,0.0001638,LEO
49290,ONEWEB-0364,2021,109.03,148.0,+,87.93,Active,1,LEO,Russia,UK,Commercial,Communications,Soyuz,1 49290U 21090M   25069.34368923  .00000142  00000+0  31634-3 0  9992,2 49290  87.9329   6.7757 0001895  85.4218 274.7132 13.20770939170215,13.20770939,0.0001895,LEO
49291,ONEWEB-0365,2021,109.11,148.0,+,87.92,Active,1,LEO,Russia,UK,Commercial,Communications,Soyuz,1 49291U 21090N   25069.41539053  .00000094  00000+0  20310-3 0  9990,2 49291  87.9195  37.1266 0002049  81.6136 278.5229 13.19726376165250,13.19726376,0.0002049,LEO
49292,ONEWEB-0366,2021,109.55,148.0,+,87.91,Active,1,LEO,Russia,UK,Commercial,Communications,Soyuz,1 49292U 21090P   25069.42188995 -.00000120  00000+0 -35830-3 0  9992,2 49292  87.9065  21.9291 0001865  82.4523 277.6818 13.14504954166638,13.14504954,0.0001865,LEO
49293,ONEWEB-0367,2021,109.03,148.0,+,87.93,Active,1,LEO,Russia,UK,Commercial,Communications,Soyuz,1 49293U 21090Q   25069.37998966  .00000211  00000+0  48624-3 0  9998,2 49293  87.9329   6.7345 0002006  78.6955 281.4403 13.20773131168601,13.20773131,0.0002006,LEO
49294,ONEWEB-0368,2021,109.03,148.0,+,87.93,Active,1,LEO,Russia,UK,Commercial,Communications,Soyuz,1 49294U 21090R   25069.35315840  .00000085  00000+0  17595-3 0  9993,2 49294  87.9329   6.7725 0002430  97.5558 262.5852 13.20772962169750,13.20772962,0.000243,LEO
49295,ONEWEB-0369,2021,109.11,148.0,+,87.92,Active,1,LEO,Russia,UK,Commercial,Communications,Soyuz,1 49295U 21090S   25069.41064910  .00000061  00000+0  11965-3 0  9999,2 49295  87.9202  37.1488 0002026  82.8697 277.2666 13.19724453165243,13.19724453,0.0002026,LEO
49296,ONEWEB-0370,2021,109.03,148.0,+,87.93,Active,1,LEO,Russia,UK,Commercial,Communications,Soyuz,1 49296U 21090T   25069.31370463  .00000114  00000+0  24819-3 0  9993,2 49296  87.9329   6.7528 0001803  68.4004 291.7321 13.20772208168633,13.20772208,0.0001803,LEO
